{
  "links" : {
    "next" : "https://api.nasa.gov/neo/rest/v1/feed?start_date=2007-05-09&end_date=2007-05-09&detailed=true&api_key=t0TVs3DtDT2H8Oy2Zy8m2eVrNsAVKAexjcZXUckd",
    "prev" : "https://api.nasa.gov/neo/rest/v1/feed?start_date=2007-05-07&end_date=2007-05-07&detailed=true&api_key=t0TVs3DtDT2H8Oy2Zy8m2eVrNsAVKAexjcZXUckd",
    "self" : "https://api.nasa.gov/neo/rest/v1/feed?start_date=2007-05-08&end_date=2007-05-08&detailed=true&api_key=t0TVs3DtDT2H8Oy2Zy8m2eVrNsAVKAexjcZXUckd"
  },
  "element_count" : 5,
  "near_earth_objects" : {
    "2007-05-08" : [ {
      "links" : {
        "self" : "https://api.nasa.gov/neo/rest/v1/neo/3375503?api_key=t0TVs3DtDT2H8Oy2Zy8m2eVrNsAVKAexjcZXUckd"
      },
      "neo_reference_id" : "3375503",
      "name" : "(2007 HD70)",
      "nasa_jpl_url" : "http://ssd.jpl.nasa.gov/sbdb.cgi?sstr=3375503",
      "absolute_magnitude_h" : 20.9,
      "estimated_diameter" : {
        "kilometers" : {
          "estimated_diameter_min" : 0.1756123185,
          "estimated_diameter_max" : 0.3926810818
        },
        "meters" : {
          "estimated_diameter_min" : 175.6123184804,
          "estimated_diameter_max" : 392.6810818086
        },
        "miles" : {
          "estimated_diameter_min" : 0.1091204019,
          "estimated_diameter_max" : 0.2440006365
        },
        "feet" : {
          "estimated_diameter_min" : 576.1559189633,
          "estimated_diameter_max" : 1288.3238004408
        }
      },
      "is_potentially_hazardous_asteroid" : false,
      "close_approach_data" : [ {
        "close_approach_date" : "2007-05-08",
        "epoch_date_close_approach" : 1178607600000,
        "relative_velocity" : {
          "kilometers_per_second" : "7.4779354303",
          "kilometers_per_hour" : "26920.5675489861",
          "miles_per_hour" : "16727.3937639798"
        },
        "miss_distance" : {
          "astronomical" : "0.1886294703",
          "lunar" : "73.3768615723",
          "kilometers" : "28218566",
          "miles" : "17534204"
        },
        "orbiting_body" : "Earth"
      } ],
      "orbital_data" : {
        "orbit_id" : "21",
        "orbit_determination_date" : "2017-04-06 09:06:29",
        "orbit_uncertainty" : "1",
        "minimum_orbit_intersection" : ".141432",
        "jupiter_tisserand_invariant" : "3.577",
        "epoch_osculation" : "2458000.5",
        "eccentricity" : ".4756927838928064",
        "semi_major_axis" : "2.114003694814348",
        "inclination" : "5.655341228928215",
        "ascending_node_longitude" : "161.2153945614772",
        "orbital_period" : "1122.682724497905",
        "perihelion_distance" : "1.108387392068432",
        "perihelion_argument" : "82.3314747649346",
        "aphelion_distance" : "3.119619997560263",
        "perihelion_time" : "2457608.608362686724",
        "mean_anomaly" : "125.6641670476179",
        "mean_motion" : ".3206604966340798",
        "equinox" : "J2000"
      }
    }, {
      "links" : {
        "self" : "https://api.nasa.gov/neo/rest/v1/neo/3639436?api_key=t0TVs3DtDT2H8Oy2Zy8m2eVrNsAVKAexjcZXUckd"
      },
      "neo_reference_id" : "3639436",
      "name" : "(2013 KJ6)",
      "nasa_jpl_url" : "http://ssd.jpl.nasa.gov/sbdb.cgi?sstr=3639436",
      "absolute_magnitude_h" : 19.9,
      "estimated_diameter" : {
        "kilometers" : {
          "estimated_diameter_min" : 0.2783267681,
          "estimated_diameter_max" : 0.6223575734
        },
        "meters" : {
          "estimated_diameter_min" : 278.3267680719,
          "estimated_diameter_max" : 622.3575733667
        },
        "miles" : {
          "estimated_diameter_min" : 0.1729441822,
          "estimated_diameter_max" : 0.3867149477
        },
        "feet" : {
          "estimated_diameter_min" : 913.1455937611,
          "estimated_diameter_max" : 2041.8556210042
        }
      },
      "is_potentially_hazardous_asteroid" : false,
      "close_approach_data" : [ {
        "close_approach_date" : "2007-05-08",
        "epoch_date_close_approach" : 1178607600000,
        "relative_velocity" : {
          "kilometers_per_second" : "14.3428963841",
          "kilometers_per_hour" : "51634.4269826635",
          "miles_per_hour" : "32083.6249215333"
        },
        "miss_distance" : {
          "astronomical" : "0.1732215086",
          "lunar" : "67.3831710815",
          "kilometers" : "25913570",
          "miles" : "16101946"
        },
        "orbiting_body" : "Earth"
      } ],
      "orbital_data" : {
        "orbit_id" : "38",
        "orbit_determination_date" : "2017-04-06 08:45:43",
        "orbit_uncertainty" : "1",
        "minimum_orbit_intersection" : ".091853",
        "jupiter_tisserand_invariant" : "7.039",
        "epoch_osculation" : "2458000.5",
        "eccentricity" : ".2440389090925771",
        "semi_major_axis" : ".8238862128010548",
        "inclination" : "20.41325785396406",
        "ascending_node_longitude" : "212.2533010326439",
        "orbital_period" : "273.1487892367381",
        "perihelion_distance" : ".6228259202126706",
        "perihelion_argument" : "235.6704621791826",
        "aphelion_distance" : "1.024946505389439",
        "perihelion_time" : "2457970.788699774121",
        "mean_anomaly" : "39.15839462881949",
        "mean_motion" : "1.317963008388032",
        "equinox" : "J2000"
      }
    } ]
  }
}